{"fetched_at":"2026-03-30T06:02:59Z","count":15439,"tles":[{"name":"STARLINK-32389","line1":"1 61549U 24184T   26087.80677095  .00003410  00000+0  12728-3 0  9999","line2":"2 61549  53.1621 285.1660 0001254  85.4327 274.6817 15.30183595 81435","category":"Starlink"}]}